X,Y,FID,OBJECTID,Spaces,Fee,Comments,Phone,Name,Address,Neighborho,Maxspaces,Hours,GlobalID,CreationDate,Creator,EditDate,Editor
-71.132325004731754,42.352607196514668,1,1,60,No Charge, , ,Municipal Lot #003,115 Harvard Ave, ,0, ,1bc385c4-285f-49d6-a606-151380906d38,2017-12-04T17:09:20.712Z,BostonGIS,2017-12-04T17:09:20.712Z,BostonGIS
-71.152817284345346,42.349661637678324,2,2,42,No Charge, , ,Municipal Lot #002,398 Market St, ,0, ,a9fcf634-ae60-407a-8b05-9bcac6bfeb63,2017-12-04T17:09:20.712Z,BostonGIS,2017-12-04T17:09:20.712Z,BostonGIS
-71.122573997679552,42.364260968930516,3,3,700,No Charge,"Only Allston and Brighton residents can park at this garage during a snow emergency only. May need to show proof of residency. Parking spots are limited and on a first-come, first-served basis. If parked past the approved the time, may be ticketed/towed.",617-496-6400,Harvard University/Soldiers Field Park Garage at 111 Western Avenue,111 Western Ave, ,0, ,9e939045-7d01-4981-bd86-819eec93ec7c,2017-12-04T17:09:20.712Z,BostonGIS,2017-12-08T21:06:11.796Z,143525_boston
-71.15622067586996,42.285711628189929,4,4,18,No Charge, , ,Municipal Lot #034,1891 Centre Street, ,0, ,0cddfbc4-5afb-40fb-a783-d9f98c95f3a7,2017-12-04T17:09:20.712Z,BostonGIS,2017-12-04T17:09:20.712Z,BostonGIS
-71.154149366191405,42.285796701069501,5,5,53,No Charge, , ,Municipal Lot #010,39-41 Corey St, ,0, ,5379d27e-2f96-43ca-aea2-9810bad6ac36,2017-12-04T17:09:20.712Z,BostonGIS,2017-12-04T17:34:41.834Z,
-71.061998516776583,42.353374032293374,6,6,800,$10 for each 24-hour period,"Discounted parking is only for Chinatown, Downtown, and North End residents. You need to provide proof of your residency. You will be charged each time your vehicle exits and re-enters the garage.",617-357-1987,Lafayette Garage,1 Avenue De Lafayette, ,0, ,6a6f6aba-32f9-4ed4-8faf-86b3527b017f,2017-12-04T17:09:20.712Z,BostonGIS,2018-01-04T12:03:33.215Z,BostonGIS
-71.046507626277347,42.336430000966686,7,7,60,No Charge, , ,Municipal Lot #018,450 West Broadway, ,0, ,5f992294-e587-4cab-90ac-58e9b9e2765d,2017-12-04T17:09:20.712Z,BostonGIS,2017-12-04T17:09:20.712Z,BostonGIS
-71.038400937989209,42.335894711233607,8,8,22,No Charge, , ,Municipal Lot #021,"650-652 East Broadway
", ,0, ,22459e32-8031-4d07-a2b3-37724ec6d665,2017-12-04T17:09:20.712Z,BostonGIS,2017-12-04T17:09:20.712Z,BostonGIS
-71.035933869262252,42.345035536905506,9,9,1766,$1 for each night,The discount is only for South Boston with a Resident Parking permits sticker.  The garage only allows snow emergency parking on the fourth floor.,617-482-2487,BRA/EDIC Garage,12 Drydock Ave, ,0, ,6bd71b92-c461-4a3c-ad4a-9426fdc474b4,2017-12-04T17:09:20.712Z,BostonGIS,2017-12-08T21:27:24.415Z,143525_boston
-71.087310172469188,42.337107266320579,10,10,864,You pay 50% of the variable rate. The most you will pay is $17.50 for each 24-hour period.,"Discounted parking is for Roxbury, South End, and Fenway/Kenmore residents only. Need to have a visible resident parking permit sticker to receive the discount. Parking is based on a first-come basis and depends on the availability of space.",617-267-9677,Northeastern University/Renaissance Park Garage,835 Columbus Avenue, ,0, ,5053fd3b-4799-4027-94bc-947c69d25945,2017-12-04T17:09:20.712Z,BostonGIS,2017-12-22T18:56:12.322Z,
-71.085675124182941,42.340408682291944,11,11,350,You pay 50% of the variable rate. The most you will pay is $17.50 for each 24-hour period.,"Discounted parking is for Roxbury, South End, and Fenway/Kenmore residents only. Need to have a visible resident parking permit sticker to receive the discount. Parking is based on a first-come basis and depends on the availability of space.",617-266-7260,Northeastern University/Gainsboro Garage,10 Gainsborough Street, ,0, ,1cd2ff90-10cb-48d0-b77f-76b92cbba22e,2017-12-04T17:09:20.712Z,BostonGIS,2017-12-08T21:23:51.449Z,143525_boston
-71.085771359114077,42.347099968431472,12,12,400,$10/24 hrs,"Discounted parking is only for Back Bay, Beacon Hill, Chinatown, Downtown, Fenway/Kenmore, and South End residents. You will be charged each time you exit and re-enter the garage with your vehicle.",617-247-8006,Auditorium Garage,50 Dalton St, ,0, ,005a11ed-4a55-4373-b4b7-1cda6571e451,2017-12-04T17:09:20.712Z,BostonGIS,2017-12-08T20:45:41.504Z,143525_boston
-71.050859858200241,42.376639266705716,13,13,250,FULL,"Charlestown residents only.  Limited space so the garage enforces the 2 hour rule.  Anyone who enters more than 2 hours before the Snow Emergency is in effect and/or departs more than 2 hours after the ban has lifted, will not receive the discount rate.", ,Shipyard Garage/Mass General Hospital,"Building #199 13th St
", ,0, ,4a6dd815-9a4a-48ab-b910-a688e451fd92,2017-12-04T17:09:20.712Z,BostonGIS,2018-03-12T23:14:19.450Z,mclane
-71.071998118175443,42.291377718564128,15,15,42,No Charge, , ,Municipal Lot #017,"575-581 Washington St
", ,0, ,c2c0ebac-589d-468a-9ba8-cd9a8a8eff0a,2017-12-04T17:09:20.712Z,BostonGIS,2017-12-04T17:09:20.712Z,BostonGIS
-71.065267281383825,42.318075683714504,16,16,100,No Charge, , ,Municipal Lot #019,16 Hamlet St, ,0, ,e95d9902-6513-4d26-bb9f-3d5579f5e320,2017-12-04T17:09:20.712Z,BostonGIS,2017-12-04T17:09:20.712Z,BostonGIS
-71.060577450324971,42.302403429847352,17,17,22,No Charge, , ,"Municipal Lot #020 
",191 Adams St, ,0, ,2849c5ff-fcc8-4d56-b667-1454c6d222da,2017-12-04T17:09:20.712Z,BostonGIS,2017-12-04T17:09:20.712Z,BostonGIS
-71.067082273657178,42.318141356561156,18,18,12,No Charge, , ,Municipal Lot #022,730-732 Dudley St, ,0, ,7035791d-a24a-4811-a077-2aff4bb74e15,2017-12-04T17:09:20.712Z,BostonGIS,2017-12-04T17:09:20.712Z,BostonGIS
-71.066087757841558,42.318168086649898,19,19,32,No Charge, , ,Municipal Lot #016,8-20 Belden St, ,0, ,26514a95-0e08-4419-af88-f4add9e92b95,2017-12-04T17:09:20.712Z,BostonGIS,2017-12-04T17:09:20.712Z,BostonGIS
-71.08366614689956,42.309212820670886,20,20,40,No Charge, , ,Municipal Lot #023,20 Georgia St, ,0, ,3bdf0475-0c19-4112-9236-557536eba4b4,2017-12-04T17:09:20.712Z,BostonGIS,2017-12-04T17:09:20.712Z,BostonGIS
-71.066971953035676,42.306781521409398,21,21,18,No Charge, , ,Municipal Lot #015,254-258 Bowdoin St, ,0, ,65526c05-b044-47e8-813d-1ddd67bc7e7f,2017-12-04T17:09:20.712Z,BostonGIS,2017-12-04T17:09:20.712Z,BostonGIS
-71.071689821867736,42.289579329046283,22,22,24,No Charge, , ,Municipal Lot #031,629 Washington St, ,0, ,5166fbef-9363-4f1d-926a-479b24d65989,2017-12-04T17:09:20.712Z,BostonGIS,2017-12-04T17:09:20.712Z,BostonGIS
-71.075654257173724,42.324534328646841,23,23,18,No Charge, , ,Municipal Lot #027,25 Blue Hill Ave, ,0, ,38360a4b-6fcb-4be6-8277-ac36128cae08,2017-12-04T17:09:20.712Z,BostonGIS,2017-12-04T17:09:20.712Z,BostonGIS
-71.037247563724407,42.374398748310888,24,24,35,No Charge, , ,Municipal Lot #004,"40 Porter St
", ,0, ,7f9d5097-a813-4463-9ea7-ba4523171836,2017-12-04T17:09:20.712Z,BostonGIS,2017-12-04T17:09:20.712Z,BostonGIS
-71.037572215733093,42.374868029206404,25,25,35,No Charge, , ,Municipal Lot #005,166-180 London St, ,0, ,12d22c40-bee6-4d2d-b3d0-6065111842b5,2017-12-04T17:09:20.712Z,BostonGIS,2017-12-04T17:09:20.712Z,BostonGIS
-71.037660207224334,42.375584397542539,26,26,26,No Charge, , ,Municipal Lot #026,36 Bennington St, ,0, ,956f6e1c-5a80-46a1-96ec-6860e8fa698c,2017-12-04T17:09:20.712Z,BostonGIS,2017-12-04T17:09:20.712Z,BostonGIS
-71.125058845994715,42.255192602353894,27,27,8,No Charge, , ,Municipal Lot #011,1269 Rear Hyde Park Ave, ,0, ,41cabe5a-dc59-44a8-924c-6b8e1a705201,2017-12-04T17:09:20.712Z,BostonGIS,2017-12-04T17:09:20.712Z,BostonGIS
-71.123472366666363,42.25653680167116,28,28,135,No Charge, , ,Municipal Lot #012,37 Winthrop St, ,0, ,eafa0a56-c333-4e69-b0d3-d70b6aa52453,2017-12-04T17:09:20.712Z,BostonGIS,2017-12-04T17:09:20.712Z,BostonGIS
-71.097266765107122,42.316551154815201,29,29,39,No Charge, , ,Municipal Lot #033,3042 Washington St, ,0, ,67f11129-24e1-460b-a482-12072c5c2886,2017-12-04T17:09:20.712Z,BostonGIS,2017-12-04T17:09:20.712Z,BostonGIS
-71.115110853582607,42.311077103773272,30,30,103,No Charge, , ,Municipal Lot #006,"737 Centre St
", ,0, ,03ad3528-50f9-4ad5-9309-799de69125c2,2017-12-04T17:09:20.712Z,BostonGIS,2017-12-04T17:40:51.007Z,
-71.107252613226763,42.322247928160515,31,31,24,No Charge, , ,Municipal Lot #007,350-352 Centre St, ,0, ,0db9d91c-e9ce-42ba-9724-5cc0498548b0,2017-12-04T17:09:20.712Z,BostonGIS,2017-12-04T17:09:20.712Z,BostonGIS
-71.098798076036985,42.315646346619125,32,32,15,No Charge, , ,Municipal Lot #024,3087 Washington St, ,0, ,58445e25-6cf8-47ec-80f2-c472f3cec703,2017-12-04T17:09:20.712Z,BostonGIS,2017-12-04T17:09:20.712Z,BostonGIS
-71.112367938715352,42.318080022064017,33,33,33,No Charge, , ,Municipal Lot #032,490-498 Centre St, ,0, ,ec036144-6de5-4b7b-b479-2afb7b3a36ca,2017-12-04T17:09:20.712Z,BostonGIS,2017-12-04T17:09:20.712Z,BostonGIS
-71.092711318169023,42.268733982677396,34,34,90,No Charge, , ,Municipal Lot #013,451-467 River St, ,0, ,fbb90dfd-1fe7-4070-af7f-d91656f94af9,2017-12-04T17:09:20.712Z,BostonGIS,2017-12-04T17:09:20.712Z,BostonGIS
-71.095398887083064,42.268758113720999,35,35,40,No Charge, , ,Municipal Lot #014,23 Fairway St, ,0, ,7cd28d6c-7b2f-4d3a-aedf-93901a159271,2017-12-04T17:09:20.712Z,BostonGIS,2017-12-04T17:09:20.712Z,BostonGIS
-71.128680172127417,42.287498746550042,36,36,92,No Charge, , ,Municipal Lot #008,10 Tafthill Terr., ,0, ,8b058e49-22cd-4420-b7f0-8a91eb542bb7,2017-12-04T17:09:20.712Z,BostonGIS,2017-12-04T17:09:20.712Z,BostonGIS
-71.083652211605667,42.331417330660877,37,37,72,No Charge, , ,Municipal Lot #001,"30 Ruggles St
", ,0, ,6a5f44c9-6fb8-4bc4-a33b-bfee66c6ac0d,2017-12-04T17:09:20.712Z,BostonGIS,2017-12-04T17:09:20.712Z,BostonGIS
-71.083127661118795,42.329224958240921,38,38,25,No Charge, , ,Municipal Lot #028,44 Warren St / Ziegler St, ,0, ,d595b15c-0e6f-429f-b765-aada46737dfb,2017-12-04T17:09:20.712Z,BostonGIS,2017-12-04T17:43:24.096Z,
-71.076194585752589,42.326536845894523,39,40,28,No Charge, , ,Municipal Lot #030,353 Dudley St, ,0, ,7da58896-dd0b-4dc1-b5c2-8352e286039c,2017-12-04T17:09:20.712Z,BostonGIS,2017-12-04T17:09:20.712Z,BostonGIS
-71.087155502845832,42.331138708579012,40,41,12,No Charge, , ,Municipal Lot #025,"14 Roxbury St
", ,0, ,99d412b4-7bcb-4084-8b60-c70bb3a4bf0a,2017-12-04T17:09:20.712Z,BostonGIS,2017-12-04T17:09:20.712Z,BostonGIS
-71.068245831554535,42.354303679889995,41,42,200,$2 for each 24-hour period,"The garage is for Beacon Hill, Back Bay, and Downtown residents only. You need to visit the garage office with proof of your residency to get the discount and park. ",617-954-2098,Boston Common Garage,Zero Charles Street, ,0, ,ffaafa99-c986-4703-91ef-6412bd1f7beb,2017-12-04T17:09:20.712Z,BostonGIS,2017-12-22T19:01:28.181Z,
-71.043838975574374,42.346292776694348,42,43,1300,No Charge,You can get to the parking lot from Cypher Street. The discount is only for South Boston Residents.,617-954-2222,Boston Convention Center,415 Summer St, ,0, ,ad52751d-fa66-45be-8b2f-e59d354c5329,2017-12-04T17:09:20.712Z,BostonGIS,2017-12-08T21:12:57.621Z,143525_boston
-71.101354122867022,42.344196013235212,43,45,537,$15 for each 24-hour period,"Discounted parking is only for residents of Fenway/Kenmore.  Before leaving the garage, stop by the parking office with both your ticket and your Fenway/Kenmore proof of residency to get the discount.", ,Fenway Triangle Trilogy Garage,180 Brookline Ave, ,0, ,72ae98ed-8f79-4c50-9318-a32720eef8c3,2017-12-04T17:09:20.712Z,BostonGIS,2017-12-12T17:17:29.895Z,
-71.09842629541221,42.344107034051717,44,46,272,$15 for each 24-hour period,"Discounted parking is only for Fenway/Kenmore residents.  There are limited spaces at this garage. Before leaving, stop by the parking office with both your ticket and your Fenway/Kenmore proof of residency to get the discount.", ,1330 Boylston Street Garage,1310 Boylston St, ,0, ,837f7406-9a40-4471-b9fd-1eeca596faf3,2017-12-04T17:09:20.712Z,BostonGIS,2017-12-08T21:13:35.290Z,143525_boston
-71.081791012422229,42.344906786613628,45,47,162,$10 for each 24-hour period,Only Back Bay and South End residents can park at the facility. Entrance to the garage is on Cumberland Street. Snow Emergency Parking is limited to 15-20 spaces. Cars must be out within two hours of the ban being lifted or will be charged regular rates.,617-247-0588,Greenhouse Parking Garage/Ultimate,150 Huntington Ave, ,0, ,34a7c19a-0a0f-4494-b530-66f91c1d482c,2017-12-04T17:09:20.712Z,BostonGIS,2017-12-08T21:01:59.011Z,143525_boston
-71.081457458247343,42.347296804820608,46,48,3000,$12 for each 24-hour period,"Discount only for Back Bay, Beacon Hill and South End. If parking ban ends before 6PM residents must move cars within two hours. If ban ends after 6PM residents have till 9AM the following morning to remove cars.  Need to stop by level P2 to get discount",617-236-3060,The Prudential Center Garage,800 Boylston St, ,0, ,9c5d7f96-c00d-4ef7-9a97-12b65b21be08,2017-12-04T17:09:20.712Z,BostonGIS,2018-01-08T14:57:44.287Z,BostonGIS
-71.073744881746237,42.34884388698844,49,51,270,$14 for each 24-hour period,"There are a limited amount of public spaces available. Discounted rates for Back Bay, Bay Village, and South End. Proof of residency required. Stop by garage office on first floor of facility to receive the snow emergency rate before leaving vehicle. ",617-948-2060,LAZ Parking/The Clarendon Parking Garage,400 Stuart St, ,0, ,e72ee0be-6317-40ef-85ec-b47af6caab3e,2017-12-04T17:09:20.712Z,BostonGIS,2017-12-22T18:40:21.588Z,
-71.102863394445734,42.344496688281666,50,52,1400,$15 for each 24-hour period,Take ticket when enter the garage. Bring ticket to the garage office located on P4 to get it validated. Must show proof of Boston residency (driver’s license is acceptable) and sign log sheet. Show validated ticket to cashier when leave to get snow rate.,617-927-0398,Landmark Center Parking Garage,401 Park Dr, ,0, ,8940acf5-253a-40cc-8674-4993a5d5b8f2,2017-12-04T17:09:20.712Z,BostonGIS,2017-12-12T17:22:03.441Z,
-71.083293566354385,42.344712103393661,51,53,525,$10 for each 24-hour period,You need to show proof that you are a Boston resident., ,Christian Science Garage,235 Huntington Ave, ,0, ,c5a4cbcb-ddbe-4404-82f4-3372b06e18c6,2017-12-04T17:09:20.712Z,BostonGIS,2017-12-08T20:47:46.718Z,143525_boston
-71.074217983430103,42.347938594130156,52,,0,$14 for each 24-hour period,"Stop by the garage office on the first floor of the facility to receive the snow emergency rate before leaving with your vehicle. You must show proof of your residency in the Back Bay, South End, or Bay Village.",617-275-0151,100 Clarendon Street Garage,100 Clarendon Street,,,,01d2ba7c-f000-40bc-ae23-e66f8a17f8e5,2017-12-08T20:54:22.342Z,143525_boston,2017-12-08T20:55:37.809Z,143525_boston
-71.052208838051456,42.343340845216822,53,,0,$10 for each 24-hour period,Please bring a valid driver’s license with a City of Boston address to the garage office.  You have 24 hours after the City lifts the snow emergency to remove your vehicle.,617-269-1830,Channel Center Garage,116 West First Street,,,,f19d4aa9-b27b-4e2d-980c-87a457e4eaa2,2017-12-08T21:10:50.594Z,143525_boston,2017-12-08T21:56:15.349Z,143525_boston
-71.099723925241705,42.344218319383543,54,,0,$15 for each 24-hour period,"Discounted parking is only for Fenway/Kenmore residents. Must remove vehicle by 9 a.m. after the parking ban ends. Before leaving the garage, stop by the parking office on the P1 level with ticket and Fenway/Kenmore proof of residency to get the discount", ,Van Ness Garage,1335 Boylston Street,,,,9fa09963-363f-43e0-8438-fe2f0eac7f7f,2017-12-08T21:16:51.218Z,143525_boston,2017-12-08T21:56:08.470Z,143525_boston
-71.07377716736525,42.332227292618661,55,,0,$10 for each 24-hour period,"You must show proof of your Boston residency to the cashier. If you don't, you won't be eligible for the discount.", ,Crosstown Center Garage,7 Melnea Cass Boulevard,,,,5ca32713-7706-47c2-bc15-a2954b13240e,2017-12-08T21:25:51.310Z,143525_boston,2017-12-08T21:55:56.425Z,143525_boston
-71.067577825086772,42.350433727270797,56,,,$0 for duration of Snow Emergency for Bay Village residents only. $10/24 hour period for all other Boston residents,"Bay Village resident parking permit is required. To receive the discounted rate, parking can begin two hours before the emergency goes into effect and leave no later than two hours after parking ban is lifted",,200 Stuart Street Garage,200 Stuart Street,,,,a1c396c5-5f5c-4c7a-b169-9894b5cd8e2f,2018-01-03T18:48:56.162Z,,2018-03-12T19:03:17.706Z,BostonGIS
-71.074297283599122,42.350712916745174,58,,,$10 for each 24-hour period,Discounted rate for South End and Back Bay residents. Proof of residency required. Residents must stop by office by the garage office on P1 with their proof of residency to receive the discounted rate before leaving.,,The Back Bay Garage,500 Boylston Street,,,,e54b6369-4354-4d56-98b8-d0bbcd18b7d0,2018-01-03T18:59:47.019Z,,2018-01-03T19:02:49.038Z,
,,59,,,,,,,,,,,c4447213-534c-4a4a-8a76-79a8415814c7,2018-01-03T19:02:53.897Z,,2018-01-03T19:02:53.897Z,
-71.068045506149446,42.351030694295254,60,,,$10 for 24 hour period and vehicle must be removed within 2 hours of the ban being lifted.,Vehicle must have a resident sticker or be able to show proof of residency otherwise regular rates apply. If vehicle enters or exits outside of 2 hour grace period regular rates apply for entire stay.,,Motor Mart Garage,201 Stuart Street,,,,10804333-4ce7-4def-9ab4-0ff536ce20fc,2018-03-12T19:05:06.649Z,BostonGIS,2018-03-12T19:13:26.638Z,BostonGIS
